NORAD_CAT_ID,OBJECT_NAME,OBJECT_TYPE,EPOCH,MEAN_MOTION,ECCENTRICITY,INCLINATION,RA_OF_ASC_NODE,ARG_OF_PERICENTER,MEAN_ANOMALY,BSTAR,MEAN_MOTION_DOT,MEAN_MOTION_DDOT,TLE_LINE0,TLE_LINE1,TLE_LINE2,SEMIMAJOR_AXIS,PERIOD,APOGEE,PERIGEE,DECAYED
53532.0,STARLINK-4483,PAYLOAD,2024-06-25 17:47:12,15.08840696,0.0001489,53.2174,346.1612,80.8206,279.2954,4.7826e-06,-2.12e-06,0.0,0 STARLINK-4483,1 53532U 22101F   24177.74111318 -.00000212  00000-0  47826-5 0  9999,2 53532  53.2174 346.1612 0001489  80.8206 279.2954 15.08840696102278,6917.878,95.438,540.773,538.713,0.0
53532.0,STARLINK-4483,PAYLOAD,2024-06-27 17:28:46,15.08837526,0.0001394,53.2182,337.243,104.7894,255.3252,2.423e-06,-2.49e-06,0.0,0 STARLINK-4483,1 53532U 22101F   24179.72831556 -.00000249  00000-0  24230-5 0  9996,2 53532  53.2182 337.2430 0001394 104.7894 255.3252 15.08837526102577,6917.888,95.438,540.717,538.789,0.0
53532.0,STARLINK-4483,PAYLOAD,2024-06-28 14:08:47,15.0883772,0.0001089,53.2162,333.3698,77.7373,282.3741,2.8022e-05,1.58e-06,0.0,0 STARLINK-4483,1 53532U 22101F   24180.58943718  .00000158  00000-0  28022-4 0  9996,2 53532  53.2162 333.3698 0001089  77.7373 282.3741 15.08837720102704,6917.887,95.438,540.506,538.999,0.0
53532.0,STARLINK-4483,PAYLOAD,2024-06-28 17:19:32,15.08856758,0.0001076,53.2168,332.7758,90.6178,269.4937,0.00018764,2.701e-05,0.0,0 STARLINK-4483,1 53532U 22101F   24180.72189978  .00002701  00000-0  18764-3 0  9999,2 53532  53.2168 332.7758 0001076  90.6178 269.4937 15.08856758102720,6917.829,95.436,540.439,538.95,0.0
53532.0,STARLINK-4483,PAYLOAD,2024-06-29 02:51:51,15.08852438,0.0001219,53.2174,330.9918,74.0339,286.0788,0.00011695,1.574e-05,0.0,0 STARLINK-4483,1 53532U 22101F   24181.11934310  .00001574  00000-0  11695-3 0  9994,2 53532  53.2174 330.9918 0001219  74.0339 286.0788 15.08852438102785,6917.842,95.437,540.551,538.864,0.0
53532.0,STARLINK-4483,PAYLOAD,2024-06-29 13:59:34,15.0883366,0.0001006,53.2164,328.9092,63.4215,296.688,-2.6306e-05,-7.06e-06,0.0,0 STARLINK-4483,1 53532U 22101F   24181.58303812 -.00000706  00000-0 -26306-4 0  9996,2 53532  53.2164 328.9092 0001006  63.4215 296.6880 15.08833660102857,6917.9,95.438,540.461,539.069,0.0
53532.0,STARLINK-4483,PAYLOAD,2024-06-29 18:45:42,15.08849776,9.25e-05,53.2165,328.0178,92.6823,267.4275,0.00011195,1.495e-05,0.0,0 STARLINK-4483,1 53532U 22101F   24181.78174275  .00001495  00000-0  11195-3 0  9990,2 53532  53.2165 328.0178 0000925  92.6823 267.4275 15.08849776102884,6917.851,95.437,540.355,539.076,0.0
53532.0,STARLINK-4483,PAYLOAD,2024-06-30 02:42:39,15.08831649,0.0001033,53.217,326.5307,73.7254,286.3852,-2.861e-05,-7.43e-06,0.0,0 STARLINK-4483,1 53532U 22101F   24182.11295951 -.00000743  00000-0 -28610-4 0  9991,2 53532  53.2170 326.5307 0001033  73.7254 286.3852 15.08831649102933,6917.906,95.438,540.486,539.056,0.0
53532.0,STARLINK-4483,PAYLOAD,2024-06-30 13:50:22,15.08830463,0.0001511,53.2176,324.4537,89.5002,270.6163,-7.4428e-05,-1.472e-05,0.0,0 STARLINK-4483,1 53532U 22101F   24182.57664617 -.00001472  00000-0 -74428-4 0  9998,2 53532  53.2176 324.4537 0001511  89.5002 270.6163 15.08830463103001,6917.91,95.438,540.82,538.729,0.0
53532.0,STARLINK-4483,PAYLOAD,2024-06-30 17:01:08,15.08840104,0.0001481,53.2167,323.8581,86.1999,273.9162,-0.00016508,-2.914e-05,0.0,0 STARLINK-4483,1 53532U 22101F   24182.70912417 -.00002914  00000-0 -16508-3 0  9993,2 53532  53.2167 323.8581 0001481  86.1999 273.9162 15.08840104103027,6917.88,95.438,540.77,538.721,0.0
53532.0,STARLINK-4483,PAYLOAD,2024-07-01 02:33:26,15.08840958,0.0001302,53.2185,322.0716,82.1493,277.9647,-7.9826e-05,-1.558e-05,0.0,0 STARLINK-4483,1 53532U 22101F   24183.10655959 -.00001558  00000-0 -79826-4 0  9999,2 53532  53.2185 322.0716 0001302  82.1493 277.9647 15.08840958103080,6917.877,95.437,540.643,538.842,0.0
53532.0,STARLINK-4483,PAYLOAD,2024-07-01 08:54:59,15.08829968,0.0001291,53.2169,320.8826,82.3559,277.758,2.4797e-05,1.07e-06,0.0,0 STARLINK-4483,1 53532U 22101F   24183.37152373  .00000107  00000-0  24797-4 0  9994,2 53532  53.2169 320.8826 0001291  82.3559 277.7580 15.08829968103129,6917.911,95.438,540.669,538.883,0.0
53532.0,STARLINK-4483,PAYLOAD,2024-07-01 15:16:31,15.08834377,9.23e-05,53.215,319.6936,83.8299,276.2799,9.1063e-05,1.162e-05,0.0,0 STARLINK-4483,1 53532U 22101F   24183.63647836  .00001162  00000-0  91063-4 0  9998,2 53532  53.2150 319.6936 0000923  83.8299 276.2799 15.08834377103165,6917.898,95.438,540.401,539.124,0.0
53532.0,STARLINK-4483,PAYLOAD,2024-07-02 02:24:13,15.0884742,0.0001005,53.2165,317.6143,89.2475,270.8632,4.5518e-06,-2.15e-06,0.0,0 STARLINK-4483,1 53532U 22101F   24184.10015310 -.00000215  00000-0  45518-5 0  9991,2 53532  53.2165 317.6143 0001005  89.2475 270.8632 15.08847420103234,6917.858,95.437,540.418,539.027,0.0
53532.0,STARLINK-4483,PAYLOAD,2024-07-02 08:45:46,15.08831578,0.0001593,53.2158,316.4243,87.7559,272.3616,0.00010926,1.451e-05,0.0,0 STARLINK-4483,1 53532U 22101F   24184.36512381  .00001451  00000-0  10926-3 0  9994,2 53532  53.2158 316.4243 0001593  87.7559 272.3616 15.08831578103272,6917.906,95.438,540.873,538.669,0.0
53532.0,STARLINK-4483,PAYLOAD,2024-07-02 15:07:19,15.08830938,0.0001273,53.2156,315.2342,93.3264,266.7874,9.3537e-05,1.201e-05,0.0,0 STARLINK-4483,1 53532U 22101F   24184.63008429  .00001201  00000-0  93537-4 0  9990,2 53532  53.2156 315.2342 0001273  93.3264 266.7874 15.08830938103315,6917.908,95.438,540.654,538.892,0.0
53532.0,STARLINK-4483,PAYLOAD,2024-07-03 13:22:42,15.08836841,0.0001258,53.2177,311.0696,108.5261,251.5868,0.00011392,1.525e-05,0.0,0 STARLINK-4483,1 53532U 22101F   24185.55744145  .00001525  00000-0  11392-3 0  9991,2 53532  53.2177 311.0696 0001258 108.5261 251.5868 15.08836841103452,6917.89,95.438,540.625,538.885,0.0
53532.0,STARLINK-4483,PAYLOAD,2024-07-03 14:58:06,15.08839558,0.0001394,53.2152,310.7733,94.112,266.0031,6.4197e-05,7.34e-06,0.0,0 STARLINK-4483,1 53532U 22101F   24185.62368221  .00000734  00000-0  64197-4 0  9999,2 53532  53.2152 310.7733 0001394  94.1120 266.0031 15.08839558103460,6917.882,95.438,540.711,538.782,0.0
53532.0,STARLINK-4483,PAYLOAD,2024-07-04 13:13:30,15.08831549,0.0001192,53.2184,306.6118,92.4555,267.6574,6.9807e-05,8.23e-06,0.0,0 STARLINK-4483,1 53532U 22101F   24186.55104766  .00000823  00000-0  69807-4 0  9996,2 53532  53.2184 306.6118 0001192  92.4555 267.6574 15.08831549103602,6917.906,95.438,540.596,538.947,0.0
53532.0,STARLINK-4483,PAYLOAD,2024-07-04 14:48:53,15.08838535,0.0001267,53.2175,306.3132,97.3672,262.7464,3.0268e-05,1.94e-06,0.0,0 STARLINK-4483,1 53532U 22101F   24186.61728458  .00000194  00000-0  30268-4 0  9993,2 53532  53.2175 306.3132 0001267  97.3672 262.7464 15.08838535103619,6917.885,95.438,540.626,538.873,0.0
53532.0,STARLINK-4483,PAYLOAD,2024-07-05 14:39:40,15.08841008,0.0001289,53.218,301.8547,82.9091,277.2048,0.00011067,1.474e-05,0.0,0 STARLINK-4483,1 53532U 22101F   24187.61088232  .00001474  00000-0  11067-3 0  9990,2 53532  53.2180 301.8547 0001289  82.9091 277.2048 15.08841008103768,6917.877,95.437,540.634,538.851,0.0
53532.0,STARLINK-4483,PAYLOAD,2024-07-06 00:11:59,15.08841342,0.0001044,53.2161,300.0699,74.7566,285.3541,-6.5257e-06,-3.92e-06,0.0,0 STARLINK-4483,1 53532U 22101F   24188.00832485 -.00000392  00000-0 -65257-5 0  9993,2 53532  53.2161 300.0699 0001044  74.7566 285.3541 15.08841342103827,6917.876,95.437,540.464,539.019,0.0
53532.0,STARLINK-4483,PAYLOAD,2024-07-06 14:30:27,15.08835105,0.0001614,53.2191,297.3971,112.6729,247.4434,2.0583e-05,4e-07,0.0,0 STARLINK-4483,1 53532U 22101F   24188.60449074  .00000040  00000-0  20583-4 0  9997,2 53532  53.2191 297.3971 0001614 112.6729 247.4434 15.08835105103917,6917.895,95.438,540.877,538.644,0.0
53532.0,STARLINK-4483,PAYLOAD,2024-07-07 00:02:47,15.08833897,0.000155,53.2187,295.6133,113.4502,246.6654,-2.8426e-06,-3.33e-06,0.0,0 STARLINK-4483,1 53532U 22101F   24189.00193357 -.00000333  00000-0 -28426-5 0  9994,2 53532  53.2187 295.6133 0001550 113.4502 246.6654 15.08833897103977,6917.899,95.438,540.836,538.692,0.0
53532.0,STARLINK-4483,PAYLOAD,2024-07-07 07:59:42,15.08838545,0.0001414,53.2181,294.1258,106.2083,253.9065,3.5293e-06,-2.32e-06,0.0,0 STARLINK-4483,1 53532U 22101F   24189.33313153 -.00000232  00000-0  35293-5 0  9995,2 53532  53.2181 294.1258 0001414 106.2083 253.9065 15.08838545104025,6917.885,95.438,540.728,538.772,0.0
53532.0,STARLINK-4483,PAYLOAD,2024-07-08 12:36:38,15.08840884,0.0001297,53.2178,288.7703,98.8672,261.2467,5.3227e-05,5.59e-06,0.0,0 STARLINK-4483,1 53532U 22101F   24190.52544922  .00000559  00000-0  53227-4 0  9995,2 53532  53.2178 288.7703 0001297  98.8672 261.2467 15.08840884104201,6917.878,95.437,540.64,538.845,0.0
53532.0,STARLINK-4483,PAYLOAD,2024-07-09 14:02:48,15.08844886,0.0001286,53.2171,284.0106,94.0507,266.0632,5.1252e-05,5.28e-06,0.0,0 STARLINK-4483,1 53532U 22101F   24191.58528622  .00000528  00000-0  51252-4 0  9993,2 53532  53.2171 284.0106 0001286  94.0507 266.0632 15.08844886104363,6917.865,95.437,540.62,538.841,0.0
53532.0,STARLINK-4483,PAYLOAD,2024-07-09 15:38:11,15.08847616,0.0001318,53.2168,283.7122,95.8302,264.284,7.2256e-05,8.62e-06,0.0,0 STARLINK-4483,1 53532U 22101F   24191.65152342  .00000862  00000-0  72256-4 0  9991,2 53532  53.2168 283.7122 0001318  95.8302 264.2840 15.08847616104377,6917.857,95.437,540.634,538.81,0.0
53532.0,STARLINK-4483,PAYLOAD,2024-07-09 23:35:07,15.08841357,0.000116,53.2157,282.2242,95.4439,264.6685,3.6718e-05,2.97e-06,0.0,0 STARLINK-4483,1 53532U 22101F   24191.98272700  .00000297  00000-0  36718-4 0  9993,2 53532  53.2157 282.2242 0001160  95.4439 264.6685 15.08841357104427,6917.876,95.437,540.544,538.939,0.0
53532.0,STARLINK-4483,PAYLOAD,2024-07-10 10:42:49,15.08842606,0.0001092,53.2154,280.141,112.0559,248.0549,-4.2888e-05,-9.7e-06,0.0,0 STARLINK-4483,1 53532U 22101F   24192.44640783 -.00000970  00000-0 -42888-4 0  9990,2 53532  53.2154 280.1410 0001092 112.0559 248.0549 15.08842606104491,6917.872,95.437,540.493,538.982,0.0
